NUSAT-1 (FRESCO)        
1 41557U 16033B   22030.97155108  .00006887  00000+0  22997-3 0  9998
2 41557  97.3898 128.8543 0013055 141.6400 334.6922 15.31275866316327
BEESAT-4                
1 41619U 16040W   22030.88821645  .00008112  00000+0  30448-3 0  9994
2 41619  97.2396  85.4287 0008707 241.4842 118.5522 15.27428852299705
CAS-2T & KS-1Q          
1 41847U 16066G   22030.89463684  .00000508  00000+0  87668-4 0  9999
2 41847  98.5713  95.6126 0363650 261.1341  94.8518 14.38339506274571
NAYIF-1 (EO-88)         
1 42017U 17008BX  22030.90568973  .00008729  00000+0  29954-3 0  9991
2 42017  97.2895  99.3508 0006258  33.8180 326.3459 15.30366071276014
ZHUHAI-1 02 (CAS-4B)    
1 42759U 17034B   22030.84180454  .00002098  00000+0  13723-3 0  9990
2 42759  43.0186  10.5321 0006932 150.9477 285.7888 15.10796258255536
ZHUHAI-1 01 (CAS-4A)    
1 42761U 17034D   22030.81890405  .00001933  00000+0  12719-3 0  9995
2 42761  43.0182   9.5452 0007220 151.8030 280.9698 15.10882658255530
MAX VALIER SAT          
1 42778U 17036P   22030.86229250  .00004706  00000+0  19211-3 0  9999
2 42778  97.2270  76.7662 0013220  93.7017 266.5734 15.24794457255920
RADFXSAT (FOX-1B)       
1 43017U 17073E   22030.65979672  .00003554  00000+0  27661-3 0  9992
2 43017  97.6911 290.4690 0251023 278.6943  78.5912 14.80279485226721
FOX-1D (AO-92)          
1 43137U 18004AC  22030.89451171  .00006219  00000+0  23928-3 0  9998
2 43137  97.3851 107.4926 0009633 123.4898 236.7262 15.26704380225348
DIWATA-2B               
1 43678U 18084H   22030.90095231  .00000044  00000+0  10164-4 0  9998
2 43678  97.9483 162.7771 0010616  27.4979 332.6809 14.91893167177345
ES'HAIL 2               
1 43700U 18090A   22030.93118181  .00000136  00000+0  00000+0 0  9999
2 43700   0.0289  91.5940 0002144 258.8640 140.6785  1.00270413 11659
FOX-1CLIFF (AO-95)      
1 43770U 18099N   22030.87546353  .00001826  00000+0  16878-3 0  9995
2 43770  97.6398 100.7557 0014850  23.0802 337.1083 14.95716701172447
ITASAT 1                
1 43786U 18099AE  22030.82013400  .00001276  00000+0  11877-3 0  9992
2 43786  97.6423 101.5366 0015410  15.8938 344.2764 14.95959690172476
JY1SAT (JO-97)          
1 43803U 18099AX  22030.87519505  .00002034  00000+0  18471-3 0  9994
2 43803  97.6384 101.3271 0015184  15.5207 344.6477 14.96289179172495
UWE-4                   
1 43880U 18111E   22030.70479010  .00001777  00000+0  15786-3 0  9991
2 43880  97.6785 299.4378 0013869  65.1463 295.1200 14.97324284169088
NEXUS (FO-99)           
1 43937U 19003F   22030.86065828  .00007134  00000+0  26661-3 0  9997
2 43937  97.1500  69.7636 0020387 286.2578  73.6419 15.27452002168952
PSAT2 (NO-104)          
1 44354U 19036R   22030.24068687  .00041225  00000+0  48091-3 0  9995
2 44354  28.5295  44.6914 0286829 231.7406 125.7054 15.23836601143477
BRICSAT2 (NO-103)       
1 44355U 19036S   22030.90244152  .00155139 -31124-6  10241-2 0  9996
2 44355  28.5229 303.0958 0167220  36.4952 324.6920 15.57371763144545
JAISAT-1                
1 44419U 19038F   22030.89067476  .00004740  00000+0  25650-3 0  9992
2 44419  97.6192   0.3133 0018687 245.8346 114.0932 15.14996095142219
DUCHIFAT-3              
1 44854U 19089C   22030.85627878  .00001915  00000+0  15714-3 0  9996
2 44854  36.9646 195.3809 0007177 192.1521 314.3341 15.00037143117258
CAS-6 (TO-108)          
1 44881U 19093C   22030.94381342  .00000244  00000+0  37754-4 0  9997
2 44881  97.9060 112.0785 0013545 274.4946  85.4708 14.81551858114415
RS-44 & BREEZE-KM R/B   
1 44909U 19096E   22030.90261484 -.00000007  00000+0 -63607-4 0  9996
2 44909  82.5244 321.6783 0216343 281.4620  76.2257 12.79712036 97918
ORBITAL FACTORY 2 (OF-2)
1 45113U 19071C   22030.64338581  .00014273  00000+0  37330-3 0  9992
2 45113  51.6410  13.8423 0011532  39.5635 320.6189 15.38937595112117
HUSKYSAT-1 (HO-107)     
1 45119U 19071J   22030.92570055  .00012091  00000+0  32033-3 0  9994
2 45119  51.6415  11.9624 0011003  37.0443 323.1299 15.38708042112150
BY70-2                  
1 45857U 20042B   22030.93507426  .00003068  00000+0  43214-3 0  9993
2 45857  97.9671 109.2449 0010875 193.3206 166.7742 14.77981469 85130
SALSAT                  
1 46495U 20068K   22030.79023863  .00001824  00000+0  13685-3 0  9999
2 46495  97.7161 332.2441 0017435  26.9262 333.2864 15.03818369 73493
BY70-3                  
1 46839U 20079N   22030.86044382  .00010307  00000+0  29163-3 0  9994
2 46839  97.2173 105.2519 0008247 106.0074   5.4973 15.36456619 69080
RADFXSAT-2 (AO-109)     
1 47311U 21002C   22030.89422900  .00006482  00000+0  28292-3 0  9997
2 47311  60.6856 159.0882 0025203 166.3887 193.7886 15.22966973 57490
UVSQ-SAT                
1 47438U 21006AB  22030.88023552  .00003319  00000+0  18594-3 0  9990
2 47438  97.4589  92.7514 0013323  38.3772 321.8405 15.14023342 56458
DIY-1 (ARDUIQUBE)       
1 47963U 21022AH  22030.68654930  .00009552  00000+0  60102-3 0  9996
2 47963  97.5449 294.0204 0016972 246.6806 113.2637 15.09294676 46144
XW-3 (CAS-9)            
1 50466U 21131B   22030.93308931 -.00000022  00000+0  74320-5 0  9997
2 50466  98.5939 108.1898 0004616 182.9694 177.1454 14.38437522  5145
